OBJECT_NAME,OBJECT_ID,EPOCH,MEAN_MOTION,ECCENTRICITY,INCLINATION,RA_OF_ASC_NODE,ARG_OF_PERICENTER,MEAN_ANOMALY,EPHEMERIS_TYPE,CLASSIFICATION_TYPE,NORAD_CAT_ID,ELEMENT_SET_NO,REV_AT_EPOCH,BSTAR,MEAN_MOTION_DOT,MEAN_MOTION_DDOT
INTELSAT 902 (IS-902),2001-039A,2026-07-02T01:45:59.606784,1.00272101,.00042983,6.1537,71.6012,27.5125,157.3906,0,U,26900,999,9084,0,-.276E-5,0
INTELSAT 904 (IS-904),2002-007A,2026-07-02T10:24:38.419200,1.00271556,.0006275,6.9556,69.0021,16.0550,320.0982,0,U,27380,999,5191,0,-.219E-5,0
DIRECTV 5 (TEMPO 1),2002-023A,2026-07-02T16:52:47.697312,1.00271722,.0003529,4.9150,75.1209,35.7481,312.9629,0,U,27426,999,8827,0,-.49E-6,0
INTELSAT 905 (IS-905),2002-027A,2026-07-02T18:27:44.291232,1.00272567,.0003998,6.7901,69.6130,32.8456,318.0766,0,U,27438,999,5151,0,.101E-5,0
GALAXY 3C (G-3C),2002-030A,2026-07-02T13:31:51.138048,1.00272065,.0001915,3.7702,77.7817,28.8727,282.0852,0,U,27445,999,4664,0,-.144E-5,0
INTELSAT 906 (IS-906),2002-041A,2026-07-02T18:40:59.592864,1.00270573,.0004086,5.8411,72.7293,10.5963,181.8750,0,U,27513,999,8718,0,.21E-6,0
GALAXY 13 (HORIZONS-1),2003-044A,2026-07-02T18:24:07.136928,1.00272356,.0001702,1.4587,83.6642,13.9274,309.2111,0,U,27954,999,4672,0,.143E-5,0
INTELSAT 10-02,2004-022A,2026-07-02T17:24:00.514944,1.00271789,.0000214,0.0404,262.6446,262.7453,15.3732,0,U,28358,999,8071,0,0,0
DIRECTV 8,2005-019A,2026-07-02T15:07:36.761376,1.00269673,.0003309,0.0193,29.8805,83.2828,275.3634,0,U,28659,999,7722,0,0,0
GALAXY 28 (G-28),2005-022A,2026-07-02T18:59:10.716000,1.00270423,.0002601,3.3367,78.7516,16.9040,82.8679,0,U,28702,999,5213,0,-.191E-5,0
GALAXY 16 (G-16),2006-023A,2026-07-02T15:13:21.211392,1.00271833,.0002766,0.0142,98.6071,359.0063,312.3991,0,U,29236,999,7312,0,-.116E-5,0
DIRECTV 9S,2006-043A,2026-07-02T16:54:54.993024,1.00271871,.0005381,2.4585,80.7245,23.9546,328.5942,0,U,29494,999,5153,0,-.104E-5,0
GALAXY 17 (G-17),2007-016B,2026-07-02T18:42:35.367264,1.00271057,.0004002,3.0089,79.7129,21.4723,15.2647,0,U,31307,999,6996,0,-.197E-5,0
INTELSAT 11 (IS-11),2007-044B,2026-07-02T18:52:32.183040,0.99048080,.0003501,3.6036,78.4875,89.4067,93.2305,0,U,32253,999,6860,0,.94E-6,0
HORIZONS-2,2007-063B,2026-07-02T13:37:50.562912,1.00274311,.0004137,2.6394,80.4470,7.8510,322.9478,0,U,32388,999,6796,0,-.244E-5,0
DIRECTV 11,2008-013A,2026-07-02T15:13:13.723104,1.00270031,.0000435,0.0453,203.0643,233.2983,333.4381,0,U,32729,999,4574,0,-.115E-5,0
GALAXY 18 (G-18),2008-024A,2026-07-02T15:06:29.369376,1.00272123,.0003184,0.0143,54.6269,52.5696,277.0908,0,U,32951,999,4600,0,.36E-6,0
GALAXY 19 (G-19),2008-045A,2026-07-02T15:13:51.161952,1.00271514,.0002939,0.0500,249.5276,227.5303,295.0729,0,U,33376,999,6505,0,-.128E-5,0
FM-5,2009-034A,2026-07-02T15:16:58.363104,1.00270651,.000102,0.0345,275.5462,72.6023,75.6004,0,U,35493,999,4679,0,-.189E-5,0
INTELSAT 14 (IS-14),2009-064A,2026-07-02T10:20:46.290048,1.00273252,.0002637,0.0224,295.8580,163.1894,291.6134,0,U,36097,999,6075,0,-.263E-5,0
INTELSAT 15 (IS-15),2009-067A,2026-07-02T19:29:39.981120,1.00272854,.0002497,0.0173,347.3282,114.3582,196.7222,0,U,36106,999,4138,0,-.175E-5,0
DIRECTV 12,2009-075A,2026-07-02T15:12:13.816800,1.00269592,.0000293,0.0418,186.0830,277.3252,302.5946,0,U,36131,999,4670,0,-.92E-6,0
INTELSAT 16 (IS-16),2010-006A,2026-07-02T10:11:54.638880,1.00272658,.0002473,0.0092,41.9781,75.3467,239.9198,0,U,36397,999,5980,0,-.234E-5,0
XM-5,2010-053A,2026-07-02T20:29:51.095040,1.00271810,.0002415,0.0667,268.1133,288.6084,276.4302,0,U,37185,999,5764,0,-.12E-6,0
INTELSAT 17 (IS-17),2010-065B,2026-07-02T19:48:18.211392,1.00271717,.0002651,0.0318,86.0350,36.0978,161.7791,0,U,37238,999,5340,0,0,0
INTELSAT 28 (IS-28),2011-016A,2026-07-02T18:57:48.348288,1.00272094,.0003926,1.8442,82.4423,22.1437,68.9475,0,U,37392,999,5344,0,-.215E-5,0
INTELSAT 18 (IS-18),2011-056A,2026-07-02T18:15:30.464064,1.00271744,.0002069,0.0292,277.5027,189.5735,267.5901,0,U,37834,999,5396,0,.64E-6,0
INTELSAT 22 (IS-22),2012-011A,2026-07-02T18:52:07.641984,1.00271303,.000169,0.0166,45.4365,51.6171,178.8880,0,U,38098,999,734,0,-.48E-6,0
INTELSAT 19 (IS-19),2012-030A,2026-07-02T18:11:30.844896,1.00271623,.0003387,0.0182,15.1062,96.1895,248.3746,0,U,38356,999,5060,0,-.46E-6,0
INTELSAT 20 (IS-20),2012-043A,2026-07-02T19:04:14.772288,1.00272335,.0002015,0.0409,77.5634,107.1490,90.6718,0,U,38740,999,5090,0,0,0
INTELSAT 21 (IS-21),2012-045A,2026-07-02T18:50:11.578272,1.00272651,.0001903,0.0279,281.3944,192.7910,31.1875,0,U,38749,999,5068,0,-.274E-5,0
